[{"OBJECT_NAME":"HORS 1","OBJECT_ID":"2023-091Y","EPOCH":"2026-03-09T22:53:40.941312","MEAN_MOTION":15.24891371,"ECCENTRICITY":0.00107483,"INCLINATION":97.5184,"RA_OF_ASC_NODE":132.0743,"ARG_OF_PERICENTER":84.6669,"MEAN_ANOMALY":275.5794,"EPHEMERIS_TYPE":0,"CLASSIFICATION_TYPE":"U","NORAD_CAT_ID":57188,"ELEMENT_SET_NO":999,"REV_AT_EPOCH":14918,"BSTAR":0.00046916276,"MEAN_MOTION_DOT":0.00011622,"MEAN_MOTION_DDOT":0},{"OBJECT_NAME":"STARLINK-30150","OBJECT_ID":"2023-119V","EPOCH":"2026-03-09T22:00:01.999584","MEAN_MOTION":15.20981294,"ECCENTRICITY":0.00011353,"INCLINATION":43.0002,"RA_OF_ASC_NODE":79.6586,"ARG_OF_PERICENTER":273.1644,"MEAN_ANOMALY":263.6875,"EPHEMERIS_TYPE":0,"CLASSIFICATION_TYPE":"U","NORAD_CAT_ID":57621,"ELEMENT_SET_NO":999,"REV_AT_EPOCH":578,"BSTAR":0.046473955,"MEAN_MOTION_DOT":0.0113976,"MEAN_MOTION_DDOT":0}]
